{"type": "FeatureCollection", "features": [ {"type": "Feature", "properties": {"norad_id": 33867, "name": "IRIDIUM 33 DEB", "group": "iridium-33-debris", "lat": 62.709200398191015, "lon": 168.07891362486112, "alt_km": 393.3631394504264, "timestamp": "2025-12-02T21:34:01.655673+00:00", "meta": {"OBJECT_NAME": "IRIDIUM 33 DEB", "OBJECT_ID": "1997-051AL", "EPOCH": "2025-12-02T11:47:15.629568", "MEAN_MOTION": 15.52958648, "ECCENTRICITY": 0.0011935, "INCLINATION": 86.3628, "RA_OF_ASC_NODE": 355.3682, "ARG_OF_PERICENTER": 101.685, "MEAN_ANOMALY": 258.5751, "EPHEMERIS_TYPE": 0, "CLASSIFICATION_TYPE": "U", "NORAD_CAT_ID": 33867, "ELEMENT_SET_NO": 999, "REV_AT_EPOCH": 89351, "BSTAR": 0.0067424, "MEAN_MOTION_DOT": 0.00443536, "MEAN_MOTION_DDOT": 0}, "tle": {"line1": "1 33867U 97051AL  25336.49115312  .00443536  00000+0  67424-2 0  9993", "line2": "2 33867  86.3628 355.3682 0011935 101.6850 258.5751 15.52958648893516"}}, "geometry": {"type": "Point", "coordinates": [168.07891362486112, 62.709200398191015]}}, {"type": "Feature", "properties": {"norad_id": 33870, "name": "IRIDIUM 33 DEB", "group": "iridium-33-debris", "lat": -76.58795388793975, "lon": -102.10665279129792, "alt_km": 736.8801992278195, "timestamp": "2025-12-02T21:34:01.655684+00:00", "meta": {"OBJECT_NAME": "IRIDIUM 33 DEB", "OBJECT_ID": "1997-051AP", "EPOCH": "2025-12-02T07:23:19.616352", "MEAN_MOTION": 14.45752988, "ECCENTRICITY": 0.0020375, "INCLINATION": 86.3756, "RA_OF_ASC_NODE": 62.7314, "ARG_OF_PERICENTER": 212.9656, "MEAN_ANOMALY": 211.117, "EPHEMERIS_TYPE": 0, "CLASSIFICATION_TYPE": "U", "NORAD_CAT_ID": 33870, "ELEMENT_SET_NO": 999, "REV_AT_EPOCH": 87986, "BSTAR": 0.0011193, "MEAN_MOTION_DOT": 3.994e-05, "MEAN_MOTION_DDOT": 0}, "tle": {"line1": "1 33870U 97051AP  25336.30786593  .00003994  00000+0  11193-2 0  9994", "line2": "2 33870  86.3756  62.7314 0020375 212.9656 211.1170 14.45752988879863"}}, "geometry": {"type": "Point", "coordinates": [-102.10665279129792, -76.58795388793975]}}, {"type": "Feature", "properties": {"norad_id": 33881, "name": "IRIDIUM 33 DEB", "group": "iridium-33-debris", "lat": 70.96651445269595, "lon": -79.53524157079795, "alt_km": 704.0870157634263, "timestamp": "2025-12-02T21:34:01.655695+00:00", "meta": {"OBJECT_NAME": "IRIDIUM 33 DEB", "OBJECT_ID": "1997-051BA", "EPOCH": "2025-12-02T09:46:20.565408", "MEAN_MOTION": 14.56267621, "ECCENTRICITY": 0.0061095, "INCLINATION": 86.3873, "RA_OF_ASC_NODE": 111.2307, "ARG_OF_PERICENTER": 208.1493, "MEAN_ANOMALY": 206.4157, "EPHEMERIS_TYPE": 0, "CLASSIFICATION_TYPE": "U", "NORAD_CAT_ID": 33881, "ELEMENT_SET_NO": 999, "REV_AT_EPOCH": 87350, "BSTAR": 0.0022979, "MEAN_MOTION_DOT": 0.00010454, "MEAN_MOTION_DDOT": 0}, "tle": {"line1": "1 33881U 97051BA  25336.40718247  .00010454  00000+0  22979-2 0  9991", "line2": "2 33881  86.3873 111.2307 0061095 208.1493 206.4157 14.56267621873501"}}, "geometry": {"type": "Point", "coordinates": [-79.53524157079795, 70.96651445269595]}}, {"type": "Feature", "properties": {"norad_id": 33884, "name": "IRIDIUM 33 DEB", "group": "iridium-33-debris", "lat": 38.31890884851544, "lon": 17.135745993692144, "alt_km": 629.7669498791411, "timestamp": "2025-12-02T21:34:01.655705+00:00", "meta": {"OBJECT_NAME": "IRIDIUM 33 DEB", "OBJECT_ID": "1997-051BD", "EPOCH": "2025-12-02T08:27:11.464128", "MEAN_MOTION": 14.77111151, "ECCENTRICITY": 0.0010777, "INCLINATION": 86.3702, "RA_OF_ASC_NODE": 14.5066, "ARG_OF_PERICENTER": 1.915, "MEAN_ANOMALY": 12.7931, "EPHEMERIS_TYPE": 0, "CLASSIFICATION_TYPE": "U", "NORAD_CAT_ID": 33884, "ELEMENT_SET_NO": 999, "REV_AT_EPOCH": 88694, "BSTAR": 0.001496, "MEAN_MOTION_DOT": 0.00010608, "MEAN_MOTION_DDOT": 0}, "tle": {"line1": "1 33884U 97051BD  25336.35221602  .00010608  00000+0  14960-2 0  9994", "line2": "2 33884  86.3702  14.5066 0010777   1.9150  12.7931 14.77111151886941"}}, "geometry": {"type": "Point", "coordinates": [17.135745993692144, 38.31890884851544]}}, {"type": "Feature", "properties": {"norad_id": 33886, "name": "IRIDIUM 33 DEB", "group": "iridium-33-debris", "lat": -16.96529912742753, "lon": 70.2647982168342, "alt_km": 772.7480784375612, "timestamp": "2025-12-02T21:34:01.655715+00:00", "meta": {"OBJECT_NAME": "IRIDIUM 33 DEB", "OBJECT_ID": "1997-051BF", "EPOCH": "2025-12-02T08:34:29.836128", "MEAN_MOTION": 14.36030894, "ECCENTRICITY": 0.0012048, "INCLINATION": 86.3832, "RA_OF_ASC_NODE": 71.5982, "ARG_OF_PERICENTER": 281.4896, "MEAN_ANOMALY": 144.7012, "EPHEMERIS_TYPE": 0, "CLASSIFICATION_TYPE": "U", "NORAD_CAT_ID": 33886, "ELEMENT_SET_NO": 999, "REV_AT_EPOCH": 87903, "BSTAR": 0.00028808, "MEAN_MOTION_DOT": 8.57e-06, "MEAN_MOTION_DDOT": 0}, "tle": {"line1": "1 33886U 97051BF  25336.35728977  .00000857  00000+0  28808-3 0  9995", "line2": "2 33886  86.3832  71.5982 0012048 281.4896 144.7012 14.36030894879039"}}, "geometry": {"type": "Point", "coordinates": [70.2647982168342, -16.96529912742753]}}, {"type": "Feature", "properties": {"norad_id": 33887, "name": "IRIDIUM 33 DEB", "group": "iridium-33-debris", "lat": -57.62556410985518, "lon": -166.5172581273936, "alt_km": 772.6200291173964, "timestamp": "2025-12-02T21:34:01.655725+00:00", "meta": {"OBJECT_NAME": "IRIDIUM 33 DEB", "OBJECT_ID": "1997-051BG", "EPOCH": "2025-12-02T08:50:48.229728", "MEAN_MOTION": 14.37206131, "ECCENTRICITY": 0.0004037, "INCLINATION": 86.3053, "RA_OF_ASC_NODE": 7.8613, "ARG_OF_PERICENTER": 276.5474, "MEAN_ANOMALY": 100.6865, "EPHEMERIS_TYPE": 0, "CLASSIFICATION_TYPE": "U", "NORAD_CAT_ID": 33887, "ELEMENT_SET_NO": 999, "REV_AT_EPOCH": 88016, "BSTAR": 0.00019598, "MEAN_MOTION_DOT": 6.03e-06, "MEAN_MOTION_DDOT": 0}, "tle": {"line1": "1 33887U 97051BG  25336.36861377  .00000603  00000+0  19598-3 0  9994", "line2": "2 33887  86.3053   7.8613 0004037 276.5474 100.6865 14.37206131880167"}}, "geometry": {"type": "Point", "coordinates": [-166.5172581273936, -57.62556410985518]}}, {"type": "Feature", "properties": {"norad_id": 33953, "name": "IRIDIUM 33 DEB", "group": "iridium-33-debris", "lat": 4.276903745510462, "lon": -122.22117527549318, "alt_km": 701.8042932813678, "timestamp": "2025-12-02T21:34:01.655736+00:00", "meta": {"OBJECT_NAME": "IRIDIUM 33 DEB", "OBJECT_ID": "1997-051BN", "EPOCH": "2025-12-02T06:09:33.536160", "MEAN_MOTION": 14.55143385, "ECCENTRICITY": 0.0018397, "INCLINATION": 86.3854, "RA_OF_ASC_NODE": 58.3281, "ARG_OF_PERICENTER": 134.9087, "MEAN_ANOMALY": 279.6133, "EPHEMERIS_TYPE": 0, "CLASSIFICATION_TYPE": "U", "NORAD_CAT_ID": 33953, "ELEMENT_SET_NO": 999, "REV_AT_EPOCH": 88151, "BSTAR": 0.0016111, "MEAN_MOTION_DOT": 6.995e-05, "MEAN_MOTION_DDOT": 0}, "tle": {"line1": "1 33953U 97051BN  25336.25663815  .00006995  00000+0  16111-2 0  9990", "line2": "2 33953  86.3854  58.3281 0018397 134.9087 279.6133 14.55143385881519"}}, "geometry": {"type": "Point", "coordinates": [-122.22117527549318, 4.276903745510462]}}, {"type": "Feature", "properties": {"norad_id": 33960, "name": "IRIDIUM 33 DEB", "group": "iridium-33-debris", "lat": 14.591163768326183, "lon": -64.87157166602026, "alt_km": 614.239346230218, "timestamp": "2025-12-02T21:34:01.655746+00:00", "meta": {"OBJECT_NAME": "IRIDIUM 33 DEB", "OBJECT_ID": "1997-051BV", "EPOCH": "2025-12-02T09:15:55.545120", "MEAN_MOTION": 14.84304989, "ECCENTRICITY": 0.0006956, "INCLINATION": 86.2527, "RA_OF_ASC_NODE": 294.3922, "ARG_OF_PERICENTER": 76.2656, "MEAN_ANOMALY": 81.3992, "EPHEMERIS_TYPE": 0, "CLASSIFICATION_TYPE": "U", "NORAD_CAT_ID": 33960, "ELEMENT_SET_NO": 999, "REV_AT_EPOCH": 88713, "BSTAR": 0.0039056, "MEAN_MOTION_DOT": 0.00032901, "MEAN_MOTION_DDOT": 0}, "tle": {"line1": "1 33960U 97051BV  25336.38605955  .00032901  00000+0  39056-2 0  9992", "line2": "2 33960  86.2527 294.3922 0006956  76.2656  81.3992 14.84304989887131"}}, "geometry": {"type": "Point", "coordinates": [-64.87157166602026, 14.591163768326183]}}, {"type": "Feature", "properties": {"norad_id": 33966, "name": "IRIDIUM 33 DEB", "group": "iridium-33-debris", "lat": 37.33913714359812, "lon": -132.50807933356273, "alt_km": 723.9683778629978, "timestamp": "2025-12-02T21:34:01.655756+00:00", "meta": {"OBJECT_NAME": "IRIDIUM 33 DEB", "OBJECT_ID": "1997-051CB", "EPOCH": "2025-12-02T06:16:20.925984", "MEAN_MOTION": 14.49520493, "ECCENTRICITY": 0.0006284, "INCLINATION": 86.3934, "RA_OF_ASC_NODE": 50.5231, "ARG_OF_PERICENTER": 226.5231, "MEAN_ANOMALY": 192.6741, "EPHEMERIS_TYPE": 0, "CLASSIFICATION_TYPE": "U", "NORAD_CAT_ID": 33966, "ELEMENT_SET_NO": 999, "REV_AT_EPOCH": 88290, "BSTAR": 0.00078492, "MEAN_MOTION_DOT": 3.028e-05, "MEAN_MOTION_DDOT": 0}, "tle": {"line1": "1 33966U 97051CB  25336.26135331  .00003028  00000+0  78492-3 0  9997", "line2": "2 33966  86.3934  50.5231 0006284 226.5231 192.6741 14.49520493882907"}}, "geometry": {"type": "Point", "coordinates": [-132.50807933356273, 37.33913714359812]}}, {"type": "Feature", "properties": {"norad_id": 34071, "name": "IRIDIUM 33 DEB", "group": "iridium-33-debris", "lat": -33.699784071408374, "lon": -155.45235416286548, "alt_km": 732.6957405813655, "timestamp": "2025-12-02T21:34:01.655767+00:00", "meta": {"OBJECT_NAME": "IRIDIUM 33 DEB", "OBJECT_ID": "1997-051CE", "EPOCH": "2025-12-02T10:38:36.590784", "MEAN_MOTION": 14.49388997, "ECCENTRICITY": 0.0009435, "INCLINATION": 86.3468, "RA_OF_ASC_NODE": 22.3033, "ARG_OF_PERICENTER": 135.5447, "MEAN_ANOMALY": 224.6516, "EPHEMERIS_TYPE": 0, "CLASSIFICATION_TYPE": "U", "NORAD_CAT_ID": 34071, "ELEMENT_SET_NO": 999, "REV_AT_EPOCH": 88185, "BSTAR": 0.00080813, "MEAN_MOTION_DOT": 3.109e-05, "MEAN_MOTION_DDOT": 0}, "tle": {"line1": "1 34071U 97051CE  25336.44347906  .00003109  00000+0  80813-3 0  9998", "line2": "2 34071  86.3468  22.3033 0009435 135.5447 224.6516 14.49388997881853"}}, "geometry": {"type": "Point", "coordinates": [-155.45235416286548, -33.699784071408374]}}]}